NORAD_CAT_ID,OBJECT_NAME,OBJECT_TYPE,EPOCH,MEAN_MOTION,ECCENTRICITY,INCLINATION,RA_OF_ASC_NODE,ARG_OF_PERICENTER,MEAN_ANOMALY,BSTAR,MEAN_MOTION_DOT,MEAN_MOTION_DDOT,TLE_LINE0,TLE_LINE1,TLE_LINE2,SEMIMAJOR_AXIS,PERIOD,APOGEE,PERIGEE,DECAYED
53778.0,STARLINK-4709,PAYLOAD,2023-12-26 22:58:59,15.08841403,0.0001533,53.2163,286.9394,105.7006,254.4155,0.00036889,5.588e-05,0.0,0 STARLINK-4709,1 53778U 22111F   23360.95762848  .00005588  00000-0  36889-3 0  9993,2 53778  53.2163 286.9394 0001533 105.7006 254.4155 15.08841403 72294,6917.876,95.437,540.802,538.681,0.0
53778.0,STARLINK-4709,PAYLOAD,2023-12-27 02:09:45,15.08847704,0.0001664,53.2172,286.3454,101.1014,259.0165,0.0005178,7.964e-05,0.0,0 STARLINK-4709,1 53778U 22111F   23361.09010733  .00007964  00000-0  51780-3 0  9995,2 53778  53.2172 286.3454 0001664 101.1014 259.0165 15.08847704 71504,6917.857,95.437,540.873,538.571,0.0
53778.0,STARLINK-4709,PAYLOAD,2023-12-27 05:20:31,15.08852444,0.0001678,53.2171,285.7501,104.5102,255.6076,0.00059568,9.208e-05,0.0,0 STARLINK-4709,1 53778U 22111F   23361.22258559  .00009208  00000-0  59568-3 0  9995,2 53778  53.2171 285.7501 0001678 104.5102 255.6076 15.08852444 72331,6917.842,95.437,540.868,538.547,0.0
53778.0,STARLINK-4709,PAYLOAD,2023-12-27 19:38:59,15.088451,0.0001982,53.2172,283.0746,105.2578,254.8633,0.00022932,3.364e-05,0.0,0 STARLINK-4709,1 53778U 22111F   23361.81874717  .00003364  00000-0  22932-3 0  9992,2 53778  53.2172 283.0746 0001982 105.2578 254.8633 15.08845100 71618,6917.865,95.437,541.101,538.359,0.0
53778.0,STARLINK-4709,PAYLOAD,2023-12-28 05:11:18,15.08842592,0.000156,53.2174,281.2912,99.9188,260.1981,0.0001611,2.277e-05,0.0,0 STARLINK-4709,1 53778U 22111F   23362.21618798  .00002277  00000-0  16110-3 0  9995,2 53778  53.2174 281.2912 0001560  99.9188 260.1981 15.08842592 72487,6917.872,95.437,540.817,538.658,0.0
53778.0,STARLINK-4709,PAYLOAD,2023-12-28 19:29:46,15.0884108,0.0001331,53.2164,278.6138,95.2073,264.9071,-2.599e-06,-3.29e-06,0.0,0 STARLINK-4709,1 53778U 22111F   23362.81234862 -.00000329  00000-0 -25990-5 0  9993,2 53778  53.2164 278.6138 0001331  95.2073 264.9071 15.08841080 71767,6917.877,95.437,540.663,538.821,0.0
53778.0,STARLINK-4709,PAYLOAD,2023-12-28 22:40:33,15.08840833,0.0001533,53.2173,278.0198,100.4779,259.6386,9.6024e-07,-2.73e-06,0.0,0 STARLINK-4709,1 53778U 22111F   23362.94482864 -.00000273  00000-0  96024-6 0  9998,2 53778  53.2173 278.0198 0001533 100.4779 259.6386 15.08840833 72590,6917.878,95.438,540.803,538.682,0.0
53778.0,STARLINK-4709,PAYLOAD,2023-12-29 03:26:42,15.08844341,0.0001585,53.2176,277.1274,101.6506,258.4664,0.0001144,1.533e-05,0.0,0 STARLINK-4709,1 53778U 22111F   23363.14354769  .00001533  00000-0  11440-3 0  9998,2 53778  53.2176 277.1274 0001585 101.6506 258.4664 15.08844341 72624,6917.867,95.437,540.829,538.636,0.0
53778.0,STARLINK-4709,PAYLOAD,2023-12-29 22:31:19,15.08855246,0.0001353,53.2165,273.5584,92.5435,267.5712,0.0003213,4.831e-05,0.0,0 STARLINK-4709,1 53778U 22111F   23363.93842054  .00004831  00000-0  32130-3 0  9997,2 53778  53.2165 273.5584 0001353  92.5435 267.5712 15.08855246 72742,6917.834,95.437,540.635,538.763,0.0
53778.0,STARLINK-4709,PAYLOAD,2023-12-30 01:42:06,15.08830173,0.0001379,53.2171,272.9644,82.4204,277.6945,-0.00019758,-3.43e-05,0.0,0 STARLINK-4709,1 53778U 22111F   23364.07090745 -.00003430  00000-0 -19758-3 0  9992,2 53778  53.2171 272.9644 0001379  82.4204 277.6945 15.08830173 71953,6917.91,95.438,540.729,538.821,0.0
53778.0,STARLINK-4709,PAYLOAD,2023-12-30 22:22:06,15.08841402,0.0001095,53.2155,269.1034,102.3344,257.7771,3.3174e-05,2.4e-06,0.0,0 STARLINK-4709,1 53778U 22111F   23364.93202463  .00000240  00000-0  33174-4 0  9992,2 53778  53.2155 269.1034 0001095 102.3344 257.7771 15.08841402 72895,6917.876,95.437,540.499,538.984,0.0
53778.0,STARLINK-4709,PAYLOAD,2023-12-31 01:32:53,15.08846772,0.0001296,53.2158,268.509,81.7706,278.3433,0.00028486,4.249e-05,0.0,0 STARLINK-4709,1 53778U 22111F   23365.06450438  .00004249  00000-0  28486-3 0  9996,2 53778  53.2158 268.5090 0001296  81.7706 278.3433 15.08846772 72101,6917.86,95.437,540.621,538.828,0.0
53778.0,STARLINK-4709,PAYLOAD,2023-12-31 17:26:45,15.08837166,0.0001409,53.2164,265.5372,82.3268,277.7884,0.00023299,3.422e-05,0.0,0 STARLINK-4709,1 53778U 22111F   23365.72691244  .00003422  00000-0  23299-3 0  9990,2 53778  53.2164 265.5372 0001409  82.3268 277.7884 15.08837166 72205,6917.889,95.438,540.729,538.779,0.0
53778.0,STARLINK-4709,PAYLOAD,2023-12-31 22:12:54,15.08834113,0.0001383,53.2158,264.6431,81.6083,278.5066,0.00021761,3.176e-05,0.0,0 STARLINK-4709,1 53778U 22111F   23365.92563465  .00003176  00000-0  21761-3 0  9993,2 53778  53.2158 264.6431 0001383  81.6083 278.5066 15.08834113 73045,6917.898,95.438,540.72,538.807,0.0
53778.0,STARLINK-4709,PAYLOAD,2024-01-01 20:28:18,15.08849925,0.0001355,53.2164,260.4795,90.8485,269.2662,0.0004332,6.615e-05,0.0,0 STARLINK-4709,1 53778U 22111F   24001.85299143  .00006615  00000-0  43320-3 0  9998,2 53778  53.2164 260.4795 0001355  90.8485 269.2662 15.08849925 72377,6917.85,95.437,540.652,538.778,0.0
53778.0,STARLINK-4709,PAYLOAD,2024-01-01 22:03:41,15.08851994,0.0001378,53.2168,260.1825,87.9668,272.1482,0.00047027,7.207e-05,0.0,0 STARLINK-4709,1 53778U 22111F   24001.91923088  .00007207  00000-0  47027-3 0  9993,2 53778  53.2168 260.1825 0001378  87.9668 272.1482 15.08851994 73190,6917.844,95.437,540.662,538.755,0.0
53778.0,STARLINK-4709,PAYLOAD,2024-01-02 02:49:50,15.08858881,0.0001386,53.2164,259.2892,91.5059,268.6092,0.00061239,9.477e-05,0.0,0 STARLINK-4709,1 53778U 22111F   24002.11794788  .00009477  00000-0  61239-3 0  9991,2 53778  53.2164 259.2892 0001386  91.5059 268.6092 15.08858881 73226,6917.823,95.436,540.646,538.729,0.0
53778.0,STARLINK-4709,PAYLOAD,2024-01-02 20:19:05,15.08849625,0.0001613,53.2143,256.0143,114.2689,245.8472,0.00020991,3.055e-05,0.0,0 STARLINK-4709,1 53778U 22111F   24002.84658670  .00003055  00000-0  20991-3 0  9996,2 53778  53.2143 256.0143 0001613 114.2689 245.8472 15.08849625 72529,6917.851,95.437,540.832,538.6,0.0
53778.0,STARLINK-4709,PAYLOAD,2024-01-02 21:54:28,15.08849381,0.0001471,53.2141,255.7181,105.363,254.7525,0.00022068,3.227e-05,0.0,0 STARLINK-4709,1 53778U 22111F   24002.91282719  .00003227  00000-0  22068-3 0  9999,2 53778  53.2141 255.7181 0001471 105.3630 254.7525 15.08849381 73342,6917.852,95.437,540.734,538.699,0.0
53778.0,STARLINK-4709,PAYLOAD,2024-01-02 23:29:51,15.08843709,0.0001539,53.2157,255.422,94.146,265.9708,4.5821e-05,4.41e-06,0.0,0 STARLINK-4709,1 53778U 22111F   24002.97906909  .00000441  00000-0  45821-4 0  9997,2 53778  53.2157 255.4220 0001539  94.1460 265.9708 15.08843709 72547,6917.869,95.437,540.799,538.669,0.0
53778.0,STARLINK-4709,PAYLOAD,2024-01-03 21:45:15,15.08847535,0.0001542,53.2153,251.2589,88.2613,271.8556,2.73e-05,1.47e-06,0.0,0 STARLINK-4709,1 53778U 22111F   24003.90642485  .00000147  00000-0  27300-4 0  9992,2 53778  53.2153 251.2589 0001542  88.2613 271.8556 15.08847535 73496,6917.857,95.437,540.789,538.656,0.0
53778.0,STARLINK-4709,PAYLOAD,2024-01-04 02:31:24,15.08852909,0.0001587,53.2165,250.3669,96.3013,263.816,6.5016e-05,7.47e-06,0.0,0 STARLINK-4709,1 53778U 22111F   24004.10514019  .00000747  00000-0  65016-4 0  9998,2 53778  53.2165 250.3669 0001587  96.3013 263.8160 15.08852909 72718,6917.841,95.437,540.804,538.608,0.0
53778.0,STARLINK-4709,PAYLOAD,2024-01-04 20:00:39,15.08835655,0.000156,53.2161,247.0911,102.1606,257.9561,3.0609e-05,1.99e-06,0.0,0 STARLINK-4709,1 53778U 22111F   24004.83379172  .00000199  00000-0  30609-4 0  9998,2 53778  53.2161 247.0911 0001560 102.1606 257.9561 15.08835655 72822,6917.894,95.438,540.838,538.679,0.0
53778.0,STARLINK-4709,PAYLOAD,2024-01-04 21:36:02,15.08835324,0.0001587,53.2167,246.7936,105.5677,254.549,2.3367e-05,8.4e-07,0.0,0 STARLINK-4709,1 53778U 22111F   24004.90003197  .00000084  00000-0  23367-4 0  9993,2 53778  53.2167 246.7936 0001587 105.5677 254.5490 15.08835324 73643,6917.895,95.438,540.858,538.662,0.0
53778.0,STARLINK-4709,PAYLOAD,2024-01-05 00:46:49,15.08836182,0.0001531,53.2165,246.1991,103.9465,256.1698,9.0856e-06,-1.43e-06,0.0,0 STARLINK-4709,1 53778U 22111F   24005.03251190 -.00000143  00000-0  90856-5 0  9991,2 53778  53.2165 246.1991 0001531 103.9465 256.1698 15.08836182 73665,6917.892,95.438,540.816,538.698,0.0
53778.0,STARLINK-4709,PAYLOAD,2024-01-05 21:26:50,15.08839183,0.0001672,53.2167,242.3335,105.883,254.2346,-0.00012184,-2.227e-05,0.0,0 STARLINK-4709,1 53778U 22111F   24005.89363871 -.00002227  00000-0 -12184-3 0  9997,2 53778  53.2167 242.3335 0001672 105.8830 254.2346 15.08839183 73797,6917.883,95.438,540.905,538.591,0.0
53778.0,STARLINK-4709,PAYLOAD,2024-01-06 00:37:37,15.08814793,0.0001847,53.2167,241.7389,107.2552,252.8642,0.00021014,3.056e-05,0.0,0 STARLINK-4709,1 53778U 22111F   24006.02612501  .00003056  00000-0  21014-3 0  9991,2 53778  53.2167 241.7389 0001847 107.2552 252.8642 15.08814793 73007,6917.957,95.439,541.1,538.545,0.0
53778.0,STARLINK-4709,PAYLOAD,2024-01-06 19:42:14,15.08838969,0.0001471,53.2162,238.1772,88.8921,271.2239,0.0001248,1.699e-05,0.0,0 STARLINK-4709,1 53778U 22111F   24006.82099603  .00001699  00000-0  12480-3 0  9999,2 53778  53.2162 238.1772 0001471  88.8921 271.2239 15.08838969 73126,6917.884,95.438,540.766,538.731,0.0
53778.0,STARLINK-4709,PAYLOAD,2024-01-06 21:17:37,15.08839373,0.0001488,53.2164,237.8808,88.9769,271.1393,0.00012807,1.751e-05,0.0,0 STARLINK-4709,1 53778U 22111F   24006.88723573  .00001751  00000-0  12807-3 0  9997,2 53778  53.2164 237.8808 0001488  88.9769 271.1393 15.08839373 73943,6917.882,95.438,540.777,538.718,0.0
53778.0,STARLINK-4709,PAYLOAD,2024-01-07 00:28:23,15.08842367,0.0001508,53.2161,237.2819,85.3581,274.7583,0.00015276,2.144e-05,0.0,0 STARLINK-4709,1 53778U 22111F   24007.01971341  .00002144  00000-0  15276-3 0  9991,2 53778  53.2161 237.2819 0001508  85.3581 274.7583 15.08842367 73961,6917.873,95.437,540.781,538.695,0.0
